[{"OBJECT_NAME":"ONEWEB-0375","OBJECT_ID":"2021-090Y","EPOCH":"2026-03-10T03:52:38.401248","MEAN_MOTION":13.20771802,"ECCENTRICITY":0.0001298,"INCLINATION":87.9169,"RA_OF_ASC_NODE":294.2059,"ARG_OF_PERICENTER":67.3234,"MEAN_ANOMALY":292.8036,"EPHEMERIS_TYPE":0,"CLASSIFICATION_TYPE":"U","NORAD_CAT_ID":49301,"ELEMENT_SET_NO":999,"REV_AT_EPOCH":21745,"BSTAR":-0.00030814299,"MEAN_MOTION_DOT":-1.12e-6,"MEAN_MOTION_DDOT":0},{"OBJECT_NAME":"ONEWEB-0376","OBJECT_ID":"2021-090Z","EPOCH":"2026-03-10T05:56:11.874624","MEAN_MOTION":13.19724964,"ECCENTRICITY":0.0001742,"INCLINATION":87.9236,"RA_OF_ASC_NODE":324.6724,"ARG_OF_PERICENTER":90.9593,"MEAN_ANOMALY":269.1739,"EPHEMERIS_TYPE":0,"CLASSIFICATION_TYPE":"U","NORAD_CAT_ID":49302,"ELEMENT_SET_NO":999,"REV_AT_EPOCH":21340,"BSTAR":-0.0003282,"MEAN_MOTION_DOT":-1.18e-6,"MEAN_MOTION_DDOT":0},{"OBJECT_NAME":"ONEWEB-0377","OBJECT_ID":"2021-090AA","EPOCH":"2026-03-10T12:37:49.238112","MEAN_MOTION":13.20770322,"ECCENTRICITY":0.0001714,"INCLINATION":87.9169,"RA_OF_ASC_NODE":294.1348,"ARG_OF_PERICENTER":80.3802,"MEAN_ANOMALY":279.7525,"EPHEMERIS_TYPE":0,"CLASSIFICATION_TYPE":"U","NORAD_CAT_ID":49303,"ELEMENT_SET_NO":999,"REV_AT_EPOCH":21749,"BSTAR":1.7008e-6,"MEAN_MOTION_DOT":1.4e-7,"MEAN_MOTION_DDOT":0},{"OBJECT_NAME":"ONEWEB-0378","OBJECT_ID":"2021-090AB","EPOCH":"2026-03-10T13:09:37.705248","MEAN_MOTION":13.20769572,"ECCENTRICITY":0.0001497,"INCLINATION":87.916,"RA_OF_ASC_NODE":294.141,"ARG_OF_PERICENTER":83.0349,"MEAN_ANOMALY":277.0955,"EPHEMERIS_TYPE":0,"CLASSIFICATION_TYPE":"U","NORAD_CAT_ID":49304,"ELEMENT_SET_NO":999,"REV_AT_EPOCH":21676,"BSTAR":-9.4312e-5,"MEAN_MOTION_DOT":-2.5e-7,"MEAN_MOTION_DDOT":0},{"OBJECT_NAME":"ONEWEB-0379","OBJECT_ID":"2021-090AC","EPOCH":"2026-03-10T03:51:37.103040","MEAN_MOTION":13.14503739,"ECCENTRICITY":0.00014939,"INCLINATION":87.8989,"RA_OF_ASC_NODE":309.4664,"ARG_OF_PERICENTER":82.5447,"MEAN_ANOMALY":277.5852,"EPHEMERIS_TYPE":0,"CLASSIFICATION_TYPE":"U","NORAD_CAT_ID":49305,"ELEMENT_SET_NO":999,"REV_AT_EPOCH":21455,"BSTAR":-0.00036817399,"MEAN_MOTION_DOT":-1.24e-6,"MEAN_MOTION_DDOT":0},{"OBJECT_NAME":"ONEWEB-0380","OBJECT_ID":"2021-090AD","EPOCH":"2026-03-10T09:30:00.180288","MEAN_MOTION":13.19725058,"ECCENTRICITY":0.0001664,"INCLINATION":87.9228,"RA_OF_ASC_NODE":324.6587,"ARG_OF_PERICENTER":71.4999,"MEAN_ANOMALY":288.6315,"EPHEMERIS_TYPE":0,"CLASSIFICATION_TYPE":"U","NORAD_CAT_ID":49306,"ELEMENT_SET_NO":999,"REV_AT_EPOCH":21339,"BSTAR":-0.00033288,"MEAN_MOTION_DOT":-1.2e-6,"MEAN_MOTION_DDOT":0},{"OBJECT_NAME":"ONEWEB-0381","OBJECT_ID":"2021-090AE","EPOCH":"2026-03-10T03:27:37.368864","MEAN_MOTION":13.20769527,"ECCENTRICITY":0.00014277,"INCLINATION":87.9173,"RA_OF_ASC_NODE":294.215,"ARG_OF_PERICENTER":77.653,"MEAN_ANOMALY":282.4763,"EPHEMERIS_TYPE":0,"CLASSIFICATION_TYPE":"U","NORAD_CAT_ID":49307,"ELEMENT_SET_NO":999,"REV_AT_EPOCH":21675,"BSTAR":-9.1092506e-5,"MEAN_MOTION_DOT":-2.4e-7,"MEAN_MOTION_DDOT":0},{"OBJECT_NAME":"ONEWEB-0382","OBJECT_ID":"2021-090AF","EPOCH":"2026-03-09T23:31:15.227904","MEAN_MOTION":13.20771763,"ECCENTRICITY":0.00012845,"INCLINATION":87.917,"RA_OF_ASC_NODE":294.244,"ARG_OF_PERICENTER":79.36,"MEAN_ANOMALY":280.7678,"EPHEMERIS_TYPE":0,"CLASSIFICATION_TYPE":"U","NORAD_CAT_ID":49308,"ELEMENT_SET_NO":999,"REV_AT_EPOCH":21672,"BSTAR":-0.00048560543,"MEAN_MOTION_DOT":-1.84e-6,"MEAN_MOTION_DDOT":0},{"OBJECT_NAME":"ONEWEB-0383","OBJECT_ID":"2021-090AG","EPOCH":"2026-03-10T03:42:28.888992","MEAN_MOTION":13.14502416,"ECCENTRICITY":0.00014415,"INCLINATION":87.8987,"RA_OF_ASC_NODE":309.4539,"ARG_OF_PERICENTER":82.3173,"MEAN_ANOMALY":277.8121,"EPHEMERIS_TYPE":0,"CLASSIFICATION_TYPE":"U","NORAD_CAT_ID":49309,"ELEMENT_SET_NO":999,"REV_AT_EPOCH":21458,"BSTAR":-0.00047271043,"MEAN_MOTION_DOT":-1.62e-6,"MEAN_MOTION_DDOT":0},{"OBJECT_NAME":"ONEWEB-0384","OBJECT_ID":"2021-090AH","EPOCH":"2026-03-10T02:56:57.381504","MEAN_MOTION":13.20807192,"ECCENTRICITY":0.00010642,"INCLINATION":87.9175,"RA_OF_ASC_NODE":294.2584,"ARG_OF_PERICENTER":84.1289,"MEAN_ANOMALY":275.9966,"EPHEMERIS_TYPE":0,"CLASSIFICATION_TYPE":"U","NORAD_CAT_ID":49310,"ELEMENT_SET_NO":999,"REV_AT_EPOCH":21675,"BSTAR":0.00011003475,"MEAN_MOTION_DOT":5.8e-7,"MEAN_MOTION_DDOT":0},{"OBJECT_NAME":"ONEWEB-0385","OBJECT_ID":"2021-090AJ","EPOCH":"2026-03-10T02:58:06.022848","MEAN_MOTION":13.20771242,"ECCENTRICITY":0.00014181,"INCLINATION":87.917,"RA_OF_ASC_NODE":294.22,"ARG_OF_PERICENTER":81.6346,"MEAN_ANOMALY":278.4948,"EPHEMERIS_TYPE":0,"CLASSIFICATION_TYPE":"U","NORAD_CAT_ID":49311,"ELEMENT_SET_NO":999,"REV_AT_EPOCH":21672,"BSTAR":-2.2460245e-5,"MEAN_MOTION_DOT":4.0e-8,"MEAN_MOTION_DDOT":0},{"OBJECT_NAME":"ONEWEB-0386","OBJECT_ID":"2021-090AK","EPOCH":"2026-03-10T03:23:05.258112","MEAN_MOTION":13.2077008,"ECCENTRICITY":0.00013663,"INCLINATION":87.9173,"RA_OF_ASC_NODE":294.2014,"ARG_OF_PERICENTER":85.2247,"MEAN_ANOMALY":274.9042,"EPHEMERIS_TYPE":0,"CLASSIFICATION_TYPE":"U","NORAD_CAT_ID":49312,"ELEMENT_SET_NO":999,"REV_AT_EPOCH":21674,"BSTAR":-0.00023131286,"MEAN_MOTION_DOT":-8.1e-7,"MEAN_MOTION_DDOT":0},{"OBJECT_NAME":"ONEWEB-0387","OBJECT_ID":"2021-090AL","EPOCH":"2026-03-10T03:00:20.849184","MEAN_MOTION":13.20771012,"ECCENTRICITY":0.00016004,"INCLINATION":87.9168,"RA_OF_ASC_NODE":294.2408,"ARG_OF_PERICENTER":76.4718,"MEAN_ANOMALY":283.6594,"EPHEMERIS_TYPE":0,"CLASSIFICATION_TYPE":"U","NORAD_CAT_ID":49313,"ELEMENT_SET_NO":999,"REV_AT_EPOCH":21674,"BSTAR":-0.00055185212,"MEAN_MOTION_DOT":-2.11e-6,"MEAN_MOTION_DDOT":0},{"OBJECT_NAME":"ONEWEB-0388","OBJECT_ID":"2021-090AM","EPOCH":"2026-03-10T05:44:49.344864","MEAN_MOTION":13.19725272,"ECCENTRICITY":0.0001549,"INCLINATION":87.9225,"RA_OF_ASC_NODE":324.6866,"ARG_OF_PERICENTER":79.4416,"MEAN_ANOMALY":280.6891,"EPHEMERIS_TYPE":0,"CLASSIFICATION_TYPE":"U","NORAD_CAT_ID":49314,"ELEMENT_SET_NO":999,"REV_AT_EPOCH":21336,"BSTAR":-0.00051121,"MEAN_MOTION_DOT":-1.92e-6,"MEAN_MOTION_DDOT":0},{"OBJECT_NAME":"ONEWEB-0389","OBJECT_ID":"2021-132A","EPOCH":"2026-03-10T09:44:18.699936","MEAN_MOTION":13.17649794,"ECCENTRICITY":0.0001657,"INCLINATION":87.9151,"RA_OF_ASC_NODE":25.4844,"ARG_OF_PERICENTER":69.5407,"MEAN_ANOMALY":290.5902,"EPHEMERIS_TYPE":0,"CLASSIFICATION_TYPE":"U","NORAD_CAT_ID":50469,"ELEMENT_SET_NO":999,"REV_AT_EPOCH":20507,"BSTAR":0.00020901,"MEAN_MOTION_DOT":9.4e-7,"MEAN_MOTION_DDOT":0},{"OBJECT_NAME":"ONEWEB-0390","OBJECT_ID":"2021-132B","EPOCH":"2026-03-10T09:46:42.942144","MEAN_MOTION":13.17647663,"ECCENTRICITY":0.0002069,"INCLINATION":87.9152,"RA_OF_ASC_NODE":25.4843,"ARG_OF_PERICENTER":77.9325,"MEAN_ANOMALY":282.2038,"EPHEMERIS_TYPE":0,"CLASSIFICATION_TYPE":"U","NORAD_CAT_ID":50470,"ELEMENT_SET_NO":999,"REV_AT_EPOCH":20507,"BSTAR":0.00018003,"MEAN_MOTION_DOT":8.3e-7,"MEAN_MOTION_DDOT":0},{"OBJECT_NAME":"ONEWEB-0391","OBJECT_ID":"2021-132C","EPOCH":"2026-03-10T09:49:10.369920","MEAN_MOTION":13.17649957,"ECCENTRICITY":0.000195,"INCLINATION":87.9151,"RA_OF_ASC_NODE":25.493,"ARG_OF_PERICENTER":55.0982,"MEAN_ANOMALY":305.0332,"EPHEMERIS_TYPE":0,"CLASSIFICATION_TYPE":"U","NORAD_CAT_ID":50471,"ELEMENT_SET_NO":999,"REV_AT_EPOCH":20507,"BSTAR":0.00021466,"MEAN_MOTION_DOT":9.6e-7,"MEAN_MOTION_DDOT":0}]
