ONEWEB-0375             
1 49301U 21090Y   26069.16155557 -.00000112  00000+0 -30814-3 0  9991
2 49301  87.9169 294.2059 0001298  67.3234 292.8036 13.20771802217455
ONEWEB-0376             
1 49302U 21090Z   26069.24735966 -.00000118  00000+0 -32820-3 0  9994
2 49302  87.9236 324.6724 0001742  90.9593 269.1739 13.19724964213405
ONEWEB-0377             
1 49303U 21090AA  26069.52626433  .00000014  00000+0  17008-5 0  9990
2 49303  87.9169 294.1348 0001714  80.3802 279.7525 13.20770322217493
ONEWEB-0378             
1 49304U 21090AB  26069.54835307 -.00000025  00000+0 -94312-4 0  9991
2 49304  87.9160 294.1410 0001497  83.0349 277.0955 13.20769572216761
ONEWEB-0379             
1 49305U 21090AC  26069.16084610 -.00000124  00000+0 -36817-3 0  9998
2 49305  87.8989 309.4664 0001493  82.5447 277.5852 13.14503739214550
ONEWEB-0380             
1 49306U 21090AD  26069.39583542 -.00000120  00000+0 -33288-3 0  9997
2 49306  87.9228 324.6587 0001664  71.4999 288.6315 13.19725058213393
ONEWEB-0381             
1 49307U 21090AE  26069.14418251 -.00000024  00000+0 -91093-4 0  9997
2 49307  87.9173 294.2150 0001427  77.6530 282.4763 13.20769527216750
ONEWEB-0382             
1 49308U 21090AF  26068.98003736 -.00000184  00000+0 -48561-3 0  9995
2 49308  87.9170 294.2440 0001284  79.3600 280.7678 13.20771763216726
ONEWEB-0383             
1 49309U 21090AG  26069.15450103 -.00000162  00000+0 -47271-3 0  9993
2 49309  87.8987 309.4539 0001441  82.3173 277.8121 13.14502416214586
ONEWEB-0384             
1 49310U 21090AH  26069.12288636  .00000058  00000+0  11003-3 0  9998
2 49310  87.9175 294.2584 0001064  84.1289 275.9966 13.20807192216751
ONEWEB-0385             
1 49311U 21090AJ  26069.12368082  .00000004  00000+0 -22460-4 0  9995
2 49311  87.9170 294.2200 0001418  81.6346 278.4948 13.20771242216722
ONEWEB-0386             
1 49312U 21090AK  26069.14103308 -.00000081  00000+0 -23131-3 0  9997
2 49312  87.9173 294.2014 0001366  85.2247 274.9042 13.20770080216748
ONEWEB-0387             
1 49313U 21090AL  26069.12524131 -.00000211  00000+0 -55185-3 0  9996
2 49313  87.9168 294.2408 0001600  76.4718 283.6594 13.20771012216741
ONEWEB-0388             
1 49314U 21090AM  26069.23946001 -.00000192  00000+0 -51121-3 0  9997
2 49314  87.9225 324.6866 0001549  79.4416 280.6891 13.19725272213369
ONEWEB-0389             
1 50469U 21132A   26069.40577199  .00000094  00000+0  20901-3 0  9995
2 50469  87.9151  25.4844 0001657  69.5407 290.5902 13.17649794205076
ONEWEB-0390             
1 50470U 21132B   26069.40744146  .00000083  00000+0  18003-3 0  9993
2 50470  87.9152  25.4843 0002069  77.9325 282.2038 13.17647663205079
ONEWEB-0391             
1 50471U 21132C   26069.40914780  .00000096  00000+0  21466-3 0  9998
2 50471  87.9151  25.4930 0001950  55.0982 305.0332 13.17649957205079
